[Satellite]
VERSION=1.1
NAME=EUROBIRD 1
NICKNAME=EUROBIRD 1
TLE1=1 26719U 01011A   15055.09407478  .00000124  00000-0  10000-3 0  9994
TLE2=2 26719   0.0732  20.7679 0004310 311.4878 243.7237  1.00274655 51150
